STARLINK-2426           
1 47836U 21018BB  26068.73125604  .00005782  00000+0  20717-3 0  9991
2 47836  53.1591 244.8074 0001254  73.0469 287.0670 15.30201942276703
FLOCK 4G-5              
1 62663U 25009BG  26068.45638436  .00011278  00000+0  40688-3 0  9997
2 62663  97.4058 151.2478 0002094 314.5072  45.5996 15.28679529 63699
